H1 CPF 01  gfz 2021 10 30 12  8032 terrasarx 
H2 0702601  6201 31698    2021 10 30 12 59 42 2021 11 04 00 00 42   120 1 1  0 0 0
H9
10 0 59520  35982.000000  0    3455174.994  -5953842.858   -291305.494
10 0 59520  36102.000000  0    3252209.441  -5957448.393  -1190550.325
10 0 59520  36222.000000  0    2993339.817  -5852994.268  -2068862.566
10 0 59520  36342.000000  0    2685010.336  -5641463.530  -2910825.588
10 0 59520  36462.000000  0    2334492.726  -5325837.003  -3701692.582
10 0 59520  36582.000000  0    1949718.122  -4911043.303  -4427647.510
10 0 59520  36702.000000  0    1539099.168  -4403870.904  -5076043.547
10 0 59520  36822.000000  0    1111348.774  -3812846.452  -5635616.931
10 0 59520  36942.000000  0     675297.903  -3148082.172  -6096673.858
10 0 59520  37062.000000  0     239715.852  -2421096.047  -6451247.460
10 0 59520  37182.000000  0    -186862.675  -1644608.484  -6693224.211
10 0 59520  37302.000000  0    -596300.372   -832319.288  -6818439.203
10 0 59520  37422.000000  0    -981007.718      1331.622  -6824740.268
10 0 59520  37542.000000  0   -1334079.995    841415.637  -6712019.900
10 0 59520  37662.000000  0   -1649418.376   1672775.802  -6482216.651
10 0 59520  37782.000000  0   -1921832.820   2480293.450  -6139285.196
10 0 59520  37902.000000  0   -2147127.087   3249157.712  -5689137.048
10 0 59520  38022.000000  0   -2322163.729   3965135.103  -5139548.699
10 0 59520  38142.000000  0   -2444908.299   4614834.125  -4500039.162
10 0 59520  38262.000000  0   -2514451.885   5185960.683  -3781715.192
10 0 59520  38382.000000  0   -2531010.138   5667556.935  -2997086.306
10 0 59520  38502.000000  0   -2495898.931   6050220.001  -2159854.400
10 0 59520  38622.000000  0   -2411487.546   6326296.918  -1284677.477
10 0 59520  38742.000000  0   -2281129.295   6490046.317   -386911.389
10 0 59520  38862.000000  0   -2109071.920   6537766.137    517661.928
10 0 59520  38982.000000  0   -1900348.930   6467884.100   1413120.832
10 0 59520  39102.000000  0   -1660652.648   6281000.604   2283695.993
10 0 59520  39222.000000  0   -1396194.137   5979886.898   3114056.508
10 0 59520  39342.000000  0   -1113554.568   5569440.771   3889586.034
10 0 59520  39462.000000  0    -819531.896   5056601.312   4596644.921
10 0 59520  39582.000000  0    -520984.570   4450222.100   5222813.974
10 0 59520  39702.000000  0    -224676.305   3760907.380   5757109.626
10 0 59520  39822.000000  0      62871.452   3000819.093   6190173.247
10 0 59520  39942.000000  0     335518.559   2183453.914   6514429.775
10 0 59520  40062.000000  0     587633.756   1323398.917   6724213.938
10 0 59520  40182.000000  0     814208.377    436067.844   6815863.408
10 0 59520  40302.000000  0    1010953.963   -462574.958   6787777.817
10 0 59520  40422.000000  0    1174382.584  -1356300.688   6640446.175
10 0 59520  40542.000000  0    1301868.706  -2228908.782   6376439.186
10 0 59520  40662.000000  0    1391691.511  -3064520.691   6000367.847
10 0 59520  40782.000000  0    1443056.717  -3847871.035   5518807.321
10 0 59520  40902.000000  0    1456097.744  -4564588.981   4940186.458
10 0 59520  41022.000000  0    1431857.414  -5201465.899   4274646.866
10 0 59520  41142.000000  0    1372249.496  -5746707.663   3533871.290
10 0 59520  41262.000000  0    1280000.653  -6190163.137   2730879.722
10 0 59520  41382.000000  0    1158573.608  -6523521.591   1879799.938
10 0 59520  41502.000000  0    1012073.235  -6740477.784    995616.812
10 0 59520  41622.000000  0     845138.476  -6836859.068     93902.929
10 0 59520  41742.000000  0     662821.379  -6810711.045   -809464.924
10 0 59520  41862.000000  0     470456.380  -6662335.341  -1698596.209
10 0 59520  41982.000000  0     273525.696  -6394280.981  -2557874.040
10 0 59520  42102.000000  0      77523.101  -6011292.506  -3372234.898
10 0 59520  42222.000000  0    -112180.930  -5520215.614  -4127436.284
10 0 59520  42342.000000  0    -290469.361  -4929861.555  -4810305.858
10 0 59520  42462.000000  0    -452600.503  -4250836.209  -5408966.209
10 0 59520  42582.000000  0    -594319.147  -3495338.784  -5913033.857
10 0 59520  42702.000000  0    -711954.296  -2676934.250  -6313789.333
10 0 59520  42822.000000  0    -802502.125  -1810304.792  -6604316.805
10 0 59520  42942.000000  0    -863692.803   -910985.622  -6779612.093
10 0 59520  43062.000000  0    -894040.383      4910.632  -6836660.293
10 0 59520  43182.000000  0    -892874.384    920977.507  -6774481.081
10 0 59520  43302.000000  0    -860353.321   1820800.840  -6594143.286
10 0 59520  43422.000000  0    -797460.184   2688245.374  -6298748.473
10 0 59520  43542.000000  0    -705979.323   3507738.259  -5893384.701
10 0 59520  43662.000000  0    -588455.275   4264546.788  -5385048.300
10 0 59520  43782.000000  0    -448133.735   4945043.830  -4782533.997
10 0 59520  43902.000000  0    -288886.367   5536958.576  -4096294.282
10 0 59520  44022.000000  0    -115120.066   6029606.516  -3338267.450
10 0 59520  44142.000000  0      68327.825   6414092.922  -2521677.223
10 0 59520  44262.000000  0     256306.091   6683486.054  -1660806.435
10 0 59520  44382.000000  0     443475.443   6832955.009   -770747.511
10 0 59520  44502.000000  0     624440.891   6859867.455    132865.641
10 0 59520  44622.000000  0     793887.392   6763844.145   1034138.897
10 0 59520  44742.000000  0     946714.775   6546767.486   1917206.006
10 0 59520  44862.000000  0    1078167.158   6212744.493   2766516.305
10 0 59520  44982.000000  0    1183955.053   5768026.715   3567115.840
10 0 59520  45102.000000  0    1260367.447   5220886.720   4304917.332
10 0 59520  45222.000000  0    1304372.175   4581456.642   4966952.915
10 0 59520  45342.000000  0    1313696.984   3861527.219   5541604.313
10 0 59520  45462.000000  0    1286895.164   3074320.435   6018800.635
10 0 59520  45582.000000  0    1223392.185   2234240.126   6390190.513
10 0 59520  45702.000000  0    1123512.296   1356602.621   6649282.809
10 0 59520  45822.000000  0     988485.405    457353.492   6791553.737
10 0 59520  45942.000000  0     820433.886   -447222.145   6814519.810
10 0 59520  46062.000000  0     622339.358  -1340793.357   6717779.966
10 0 59520  46182.000000  0     397989.663  -2207278.291   6503022.530
10 0 59520  46302.000000  0     151906.731  -3031133.755   6173998.026
10 0 59520  46422.000000  0    -110742.904  -3797635.886   5736455.847
10 0 59520  46542.000000  0    -384252.820  -4493143.775   5198047.825
10 0 59520  46662.000000  0    -662495.439  -5105345.833   4568202.690
10 0 59520  46782.000000  0    -939054.272  -5623487.390   3857968.589
10 0 59520  46902.000000  0   -1207366.386  -6038570.012   3079821.534
10 0 59520  47022.000000  0   -1460871.148  -6343516.794   2247446.627
10 0 59520  47142.000000  0   -1693162.151  -6533302.646   1375496.221
10 0 59520  47262.000000  0   -1898139.983  -6605044.560    479326.237
10 0 59520  47382.000000  0   -2070158.854  -6558047.788   -425282.516
10 0 59520  47502.000000  0   -2204164.737  -6393808.149  -1322410.999
10 0 59520  47622.000000  0   -2295821.889  -6115970.399  -2196290.470
10 0 59520  47742.000000  0   -2341624.700  -5730243.944  -3031587.073
10 0 59520  47862.000000  0   -2338991.672  -5244277.441  -3813676.385
10 0 59520  47982.000000  0   -2286339.028  -4667496.099  -4528900.811
10 0 59520  48102.000000  0   -2183132.806  -4010907.880  -5164804.697
10 0 59520  48222.000000  0   -2029919.077  -3286884.273  -5710344.483
10 0 59520  48342.000000  0   -1828331.931  -2508920.394  -6156071.884
10 0 59520  48462.000000  0   -1581078.636  -1691378.615  -6494287.313
10 0 59520  48582.000000  0   -1291903.009   -849222.020  -6719161.007
10 0 59520  48702.000000  0    -965528.944      2257.056  -6826822.814
10 0 59520  48822.000000  0    -607583.958    847709.265  -6815421.007
10 0 59520  48942.000000  0    -224503.513   1671997.801  -6685150.492
10 0 59520  49062.000000  0     176580.877   2460462.193  -6438249.809
10 0 59520  49182.000000  0     587970.327   3199174.015  -6078968.973
10 0 59520  49302.000000  0    1001543.109   3875181.169  -5613504.007
10 0 59520  49422.000000  0    1408910.408   4476734.692  -5049899.667
10 0 59520  49542.000000  0    1801582.504   4993497.146  -4397922.634
10 0 59520  49662.000000  0    2171142.579   5416728.175  -3668902.363
10 0 59520  49782.000000  0    2509423.911   5739441.347  -2875542.538
10 0 59520  49902.000000  0    2808687.508   5956530.527  -2031705.849
10 0 59520  50022.000000  0    3061796.172   6064861.554  -1152173.644
10 0 59520  50142.000000  0    3262379.712   6063325.576   -252384.367
10 0 59520  50262.000000  0    3404986.594   5952851.440    651843.231
10 0 59520  50382.000000  0    3485218.666   5736376.908   1544595.207
10 0 59520  50502.000000  0    3499845.990   5418780.357   2410150.386
10 0 59520  50622.000000  0    3446897.375   5006773.907   3233265.980
10 0 59520  50742.000000  0    3325725.436   4508758.338   3999453.740
10 0 59520  50862.000000  0    3137044.901   3934646.982   4695239.249
10 0 59520  50982.000000  0    2882939.525   3295661.402   5308403.211
10 0 59520  51102.000000  0    2566840.609   2604103.460   5828192.905
10 0 59520  51222.000000  0    2193481.241   1873113.309   6245505.740
10 0 59520  51342.000000  0    1768823.814   1116415.020   6553044.298
10 0 59520  51462.000000  0    1299961.753    348055.610   6745436.981
10 0 59520  51582.000000  0     794999.213   -417855.018   6819325.454
10 0 59520  51702.000000  0     262910.632  -1167402.509   6773421.130
10 0 59520  51822.000000  0    -286619.024  -1887121.042   6608526.205
10 0 59520  51942.000000  0    -843370.561  -2564235.107   6327519.953
10 0 59520  52062.000000  0   -1396779.450  -3186886.539   5935309.984
10 0 59520  52182.000000  0   -1936133.346  -3744342.849   5438751.567
10 0 59520  52302.000000  0   -2450779.110  -4227185.933   4846536.081
10 0 59520  52422.000000  0   -2930335.812  -4627477.737   4169045.987
99
